{
  "type": "FeatureCollection",
  "features": [
    {
      "type": "Feature",
      "properties": {
        "norad_id": 33887,
        "name": "IRIDIUM 33 DEB",
        "group": "iridium-33-debris",
        "lat": -69.27928277359261,
        "lon": -172.46137863829335,
        "alt_km": 773.7889172015657,
        "timestamp": "2025-12-25T22:42:17.398152+00:00",
        "meta_object_name": "IRIDIUM 33 DEB",
        "meta_object_id": "1997-051BG",
        "meta_epoch": "2025-12-25T01:50:13.201152",
        "meta_mean_motion": 14.37231733,
        "meta_eccentricity": 0.00057849,
        "meta_inclination": 86.3043,
        "meta_ra_of_asc_node": 358.0753,
        "meta_arg_of_pericenter": 179.6912,
        "meta_mean_anomaly": 253.8578,
        "meta_ephemeris_type": 0,
        "meta_classification_type": "U",
        "meta_norad_cat_id": 33887,
        "meta_element_set_no": 999,
        "meta_rev_at_epoch": 88342,
        "meta_bstar": 0.00014791728,
        "meta_mean_motion_dot": 4.6e-06,
        "meta_mean_motion_ddot": 0,
        "tle_line1": "1 33887U 97051BG  25359.07654168  .00000460  00000+0  14792-3 0  9997",
        "tle_line2": "2 33887  86.3043 358.0753 0005784 179.6912 253.8578 14.37231733883422"
      },
      "geometry": {
        "type": "Point",
        "coordinates": [
          -172.46137863829335,
          -69.27928277359261
        ]
      }
    },
    {
      "type": "Feature",
      "properties": {
        "norad_id": 33953,
        "name": "IRIDIUM 33 DEB",
        "group": "iridium-33-debris",
        "lat": -66.75847125969496,
        "lon": -123.48432227715729,
        "alt_km": 727.6410536711883,
        "timestamp": "2025-12-25T22:42:17.398163+00:00",
        "meta_object_name": "IRIDIUM 33 DEB",
        "meta_object_id": "1997-051BN",
        "meta_epoch": "2025-12-25T15:33:55.183968",
        "meta_mean_motion": 14.55441742,
        "meta_eccentricity": 0.001753,
        "meta_inclination": 86.3832,
        "meta_ra_of_asc_node": 48.1755,
        "meta_arg_of_pericenter": 63.1805,
        "meta_mean_anomaly": 66.1443,
        "meta_ephemeris_type": 0,
        "meta_classification_type": "U",
        "meta_norad_cat_id": 33953,
        "meta_element_set_no": 999,
        "meta_rev_at_epoch": 88491,
        "meta_bstar": 0.0011189,
        "meta_mean_motion_dot": 4.893e-05,
        "meta_mean_motion_ddot": 0,
        "tle_line1": "1 33953U 97051BN  25359.64855537  .00004893  00000+0  11189-2 0  9997",
        "tle_line2": "2 33953  86.3832  48.1755 0017530  63.1805  66.1443 14.55441742884915"
      },
      "geometry": {
        "type": "Point",
        "coordinates": [
          -123.48432227715729,
          -66.75847125969496
        ]
      }
    },
    {
      "type": "Feature",
      "properties": {
        "norad_id": 33960,
        "name": "IRIDIUM 33 DEB",
        "group": "iridium-33-debris",
        "lat": 41.43083115485137,
        "lon": -73.3990575488759,
        "alt_km": 602.7331696147467,
        "timestamp": "2025-12-25T22:42:17.398173+00:00",
        "meta_object_name": "IRIDIUM 33 DEB",
        "meta_object_id": "1997-051BV",
        "meta_epoch": "2025-12-25T05:26:42.762912",
        "meta_mean_motion": 14.85811675,
        "meta_eccentricity": 0.0007121,
        "meta_inclination": 86.2536,
        "meta_ra_of_asc_node": 283.625,
        "meta_arg_of_pericenter": 40.2762,
        "meta_mean_anomaly": 117.1515,
        "meta_ephemeris_type": 0,
        "meta_classification_type": "U",
        "meta_norad_cat_id": 33960,
        "meta_element_set_no": 999,
        "meta_rev_at_epoch": 89052,
        "meta_bstar": 0.003315,
        "meta_mean_motion_dot": 0.00028953,
        "meta_mean_motion_ddot": 0,
        "tle_line1": "1 33960U 97051BV  25359.22688383  .00028953  00000+0  33150-2 0  9997",
        "tle_line2": "2 33960  86.2536 283.6250 0007121  40.2762 117.1515 14.85811675890522"
      },
      "geometry": {
        "type": "Point",
        "coordinates": [
          -73.3990575488759,
          41.43083115485137
        ]
      }
    },
    {
      "type": "Feature",
      "properties": {
        "norad_id": 33966,
        "name": "IRIDIUM 33 DEB",
        "group": "iridium-33-debris",
        "lat": 80.08078933889978,
        "lon": -160.79728322544935,
        "alt_km": 715.3389289274,
        "timestamp": "2025-12-25T22:42:17.398184+00:00",
        "meta_object_name": "IRIDIUM 33 DEB",
        "meta_object_id": "1997-051CB",
        "meta_epoch": "2025-12-25T12:53:56.995008",
        "meta_mean_motion": 14.49641936,
        "meta_eccentricity": 0.0008794,
        "meta_inclination": 86.391,
        "meta_ra_of_asc_node": 40.5342,
        "meta_arg_of_pericenter": 148.7203,
        "meta_mean_anomaly": 339.7416,
        "meta_ephemeris_type": 0,
        "meta_classification_type": "U",
        "meta_norad_cat_id": 33966,
        "meta_element_set_no": 999,
        "meta_rev_at_epoch": 88627,
        "meta_bstar": 0.00048825,
        "meta_mean_motion_dot": 1.896e-05,
        "meta_mean_motion_ddot": 0,
        "tle_line1": "1 33966U 97051CB  25359.53746522  .00001896  00000+0  48825-3 0  9990",
        "tle_line2": "2 33966  86.3910  40.5342 0008794 148.7203 339.7416 14.49641936886278"
      },
      "geometry": {
        "type": "Point",
        "coordinates": [
          -160.79728322544935,
          80.08078933889978
        ]
      }
    },
    {
      "type": "Feature",
      "properties": {
        "norad_id": 34071,
        "name": "IRIDIUM 33 DEB",
        "group": "iridium-33-debris",
        "lat": 20.024256096561892,
        "lon": -169.24761506225795,
        "alt_km": 727.0715499088283,
        "timestamp": "2025-12-25T22:42:17.398194+00:00",
        "meta_object_name": "IRIDIUM 33 DEB",
        "meta_object_id": "1997-051CE",
        "meta_epoch": "2025-12-25T12:01:48.648000",
        "meta_mean_motion": 14.49519816,
        "meta_eccentricity": 0.0009841,
        "meta_inclination": 86.3451,
        "meta_ra_of_asc_node": 12.2805,
        "meta_arg_of_pericenter": 73.6013,
        "meta_mean_anomaly": 286.6272,
        "meta_ephemeris_type": 0,
        "meta_classification_type": "U",
        "meta_norad_cat_id": 34071,
        "meta_element_set_no": 999,
        "meta_rev_at_epoch": 88519,
        "meta_bstar": 0.00061333,
        "meta_mean_motion_dot": 2.371e-05,
        "meta_mean_motion_ddot": 0,
        "tle_line1": "1 34071U 97051CE  25359.50125750  .00002371  00000+0  61333-3 0  9997",
        "tle_line2": "2 34071  86.3451  12.2805 0009841  73.6013 286.6272 14.49519816885196"
      },
      "geometry": {
        "type": "Point",
        "coordinates": [
          -169.24761506225795,
          20.024256096561892
        ]
      }
    },
    {
      "type": "Feature",
      "properties": {
        "norad_id": 34077,
        "name": "IRIDIUM 33 DEB",
        "group": "iridium-33-debris",
        "lat": 13.892895504512651,
        "lon": 46.58466789451862,
        "alt_km": 672.3627661969558,
        "timestamp": "2025-12-25T22:42:17.398204+00:00",
        "meta_object_name": "IRIDIUM 33 DEB",
        "meta_object_id": "1997-051CL",
        "meta_epoch": "2025-12-25T15:09:22.159872",
        "meta_mean_motion": 14.64997982,
        "meta_eccentricity": 0.0008673,
        "meta_inclination": 86.3846,
        "meta_ra_of_asc_node": 45.8272,
        "meta_arg_of_pericenter": 357.0733,
        "meta_mean_anomaly": 159.1877,
        "meta_ephemeris_type": 0,
        "meta_classification_type": "U",
        "meta_norad_cat_id": 34077,
        "meta_element_set_no": 999,
        "meta_rev_at_epoch": 88521,
        "meta_bstar": 0.0015833,
        "meta_mean_motion_dot": 8.51e-05,
        "meta_mean_motion_ddot": 0,
        "tle_line1": "1 34077U 97051CL  25359.63150648  .00008510  00000+0  15833-2 0  9995",
        "tle_line2": "2 34077  86.3846  45.8272 0008673 357.0733 159.1877 14.64997982885219"
      },
      "geometry": {
        "type": "Point",
        "coordinates": [
          46.58466789451862,
          13.892895504512651
        ]
      }
    },
    {
      "type": "Feature",
      "properties": {
        "norad_id": 34079,
        "name": "IRIDIUM 33 DEB",
        "group": "iridium-33-debris",
        "lat": 2.45099922622234,
        "lon": -177.50127647277108,
        "alt_km": 622.0583173036412,
        "timestamp": "2025-12-25T22:42:17.398214+00:00",
        "meta_object_name": "IRIDIUM 33 DEB",
        "meta_object_id": "1997-051CN",
        "meta_epoch": "2025-12-25T12:46:07.398048",
        "meta_mean_motion": 14.83867187,
        "meta_eccentricity": 0.0003997,
        "meta_inclination": 86.3777,
        "meta_ra_of_asc_node": 2.8424,
        "meta_arg_of_pericenter": 319.4586,
        "meta_mean_anomaly": 167.865,
        "meta_ephemeris_type": 0,
        "meta_classification_type": "U",
        "meta_norad_cat_id": 34079,
        "meta_element_set_no": 999,
        "meta_rev_at_epoch": 89167,
        "meta_bstar": 0.0019274,
        "meta_mean_motion_dot": 0.00016035,
        "meta_mean_motion_ddot": 0,
        "tle_line1": "1 34079U 97051CN  25359.53203007  .00016035  00000+0  19274-2 0  9998",
        "tle_line2": "2 34079  86.3777   2.8424 0003997 319.4586 167.8650 14.83867187891674"
      },
      "geometry": {
        "type": "Point",
        "coordinates": [
          -177.50127647277108,
          2.45099922622234
        ]
      }
    }
  ]
}